ONEWEB-0056             
1 45159U 20008AE  25029.33402934 -.00000233  00000+0 -70440-3 0  9997
2 45159  87.8910 136.6634 0001645 106.7409 253.3899 13.10376598242955
ONEWEB-0057             
1 45160U 20008AF  25029.56976553  .00000110  00000+0  27965-3 0  9993
2 45160  87.8925 136.6267 0001672 105.9664 254.1647 13.10377219242882
ONEWEB-0058             
1 45161U 20008AG  25029.32751644 -.00000478  00000+0 -14060-2 0  9990
2 45161  87.8916 136.6961 0002027 111.7311 248.4032 13.10372733243187
ONEWEB-0059             
1 45162U 20008AH  25029.32406503 -.00000791  00000+0 -23033-2 0  9990
2 45162  87.8911 136.6860 0001951 111.5646 248.5689 13.10373495243078
ONEWEB-0062             
1 45163U 20008AJ  25029.35064234  .00000580  00000+0  16241-2 0  9992
2 45163  87.8919 136.6644 0002648 112.3386 247.8022 13.10375512242952
ONEWEB-0065             
1 45164U 20008AK  25029.32904386 -.00000640  00000+0 -18699-2 0  9999
2 45164  87.8917 136.6832 0001565  98.3002 261.8303 13.10375329242634
ONEWEB-0066             
1 45424U 20020A   25028.67243798 -.00000376  00000+0 -10959-2 0  9999
2 45424  87.8903 121.6258 0001547 119.0316 241.0967 13.11419183236551
ONEWEB-0067             
1 45425U 20020B   25029.54915183  .00000570  00000+0  15735-2 0  9992
2 45425  87.8889 121.3851 0001604 110.1916 249.9384 13.11418141236736
